[Satellite]
VERSION=1.1
NAME=CZ-4B R/B
NICKNAME=CZ-4B R/B
TLE1=1 25732U 99025C   18020.84525510 -.00000023  00000-0  10894-4 0  9997
TLE2=2 25732  98.9956  30.2743 0037196 190.5390 224.8660 14.17643723967377
